{
  "norad_id": 58227,
  "name": "STARLINK-30874",
  "history": [
    {
      "epoch": "2026-03-28T00:33:04.322016",
      "apogee_km": 486.2877475543273,
      "perigee_km": 484.7762303695772,
      "latitude_deg": 29.9840615823035,
      "longitude_deg": 4.9048022399656475,
      "semi_major_axis_km": 6863.668988961952,
      "eccentricity": 0.00011011,
      "inclination_deg": 43.0005,
      "raan_deg": 90.6452,
      "arg_perigee_deg": 264.5198,
      "mean_anomaly_deg": 95.5528,
      "mean_motion_rev_day": 15.26751185
    },
    {
      "epoch": "2026-03-29T00:06:10.428768",
      "apogee_km": 486.4449199510618,
      "perigee_km": 484.54232154299007,
      "latitude_deg": -30.19493137813794,
      "longitude_deg": 99.11158751975745,
      "semi_major_axis_km": 6863.630620747025,
      "eccentricity": 0.0001386,
      "inclination_deg": 43.0019,
      "raan_deg": 85.1098,
      "arg_perigee_deg": 261.2282,
      "mean_anomaly_deg": 98.8413,
      "mean_motion_rev_day": 15.26763987
    }
  ]
}